GLOBALSTAR M068 [-]     
1 32266U 07048D   23245.46859749 -.00000049  00000+0  30459-3 0  9993
2 32266  51.9880 134.9054 0001147 100.7403  71.4765 12.62765474734969
GLOBALSTAR M079 [+]     
1 37188U 10054A   23245.50261793 -.00000078  00000+0  14605-3 0  9990
2 37188  52.0063 329.7103 0000401 101.9957 271.7445 12.62267319593902
GLOBALSTAR M074 [+]     
1 37189U 10054B   23245.54860497 -.00000072  00000+0  17477-3 0  9995
2 37189  52.0035 328.9942 0000628 105.6337 357.1960 12.62269318594518
GLOBALSTAR M076 [+]     
1 37190U 10054C   23245.57587337 -.00000078  00000+0  14108-3 0  9993
2 37190  52.0047 329.0207 0000706  53.2835  54.7286 12.62260469594235
GLOBALSTAR M077 [+]     
1 37191U 10054D   23245.57551365 -.00000081  00000+0  12942-3 0  9994
2 37191  52.0066 285.6925 0000475 107.3077  57.6202 12.62260566594602
GLOBALSTAR M075 [+]     
1 37192U 10054E   23245.58368970 -.00000097  00000+0  36251-4 0  9991
2 37192  51.9972  11.6158 0000524  90.1297 352.6716 12.62260672593469
GLOBALSTAR M073 [+]     
1 37193U 10054F   23245.51971683 -.00000084  00000+0  10950-3 0  9999
2 37193  52.0053 285.1351 0000388 108.5215  43.1263 12.62267082595280
GLOBALSTAR M083 [+]     
1 37739U 11033A   23245.45679278 -.00000105  00000+0 -72671-5 0  9996
2 37739  51.9841 234.9479 0000201 143.1122  23.4660 12.62268679564290
GLOBALSTAR M088 [+]     
1 37740U 11033B   23245.43173475 -.00000073  00000+0  17444-3 0  9992
2 37740  51.9728 141.0662 0000353  45.8766 126.4400 12.62265086559837
GLOBALSTAR M091 [+]     
1 37741U 11033C   23245.36557664 -.00000079  00000+0  14031-3 0  9996
2 37741  51.9990 103.6532 0000413  65.1460 105.7996 12.62265998560612
GLOBALSTAR M085 [+]     
1 37742U 11033D   23245.39497823 -.00000107  00000+0 -15765-4 0  9999
2 37742  51.9872  55.1782 0000570  92.5420 272.9689 12.62266623561134
GLOBALSTAR M081 [+]     
1 37743U 11033E   23245.42262156 -.00000102  00000+0  10716-4 0  9998
2 37743  51.9962  57.4786 0000532  66.9570 303.7714 12.62270661561288
GLOBALSTAR M089 [+]     
1 37744U 11033F   23245.55697615 -.00000104  00000+0 -30223-6 0  9995
2 37744  51.9955  11.4214 0000842  80.3052   0.9729 12.62266307562146
GLOBALSTAR M084 [+]     
1 38040U 11080A   23245.42790595 -.00000107  00000+0 -17443-4 0  9994
2 38040  51.9984 238.7577 0000489  68.1439  85.7690 12.62265345540105
GLOBALSTAR M080 [+]     
1 38041U 11080B   23245.29120383 -.00000104  00000+0  14823-5 0  9998
2 38041  52.0038 240.5502 0000546  44.1350 328.8141 12.62264119540219
GLOBALSTAR M082 [+]     
1 38042U 11080C   23245.32845714 -.00000108  00000+0 -26363-4 0  9991
2 38042  52.0061 195.8128 0000400 164.6444 317.5994 12.62270217540928
GLOBALSTAR M092 [+]     
1 38043U 11080D   23245.43638366 -.00000088  00000+0  86049-4 0  9990
2 38043  52.0076 285.8287 0000714  92.8562 280.2592 12.62272001539394
GLOBALSTAR M090 [+]     
1 38044U 11080E   23245.60317634 -.00000098  00000+0  33394-4 0  9998
2 38044  51.9871 189.6278 0000175  60.0493 111.1649 12.62267185541078
GLOBALSTAR M086 [+]     
1 38045U 11080F   23245.22659203 -.00000104  00000+0 -28631-6 0  9997
2 38045  51.9883 191.2734 0001041 334.1699 165.7590 12.62269805540973
GLOBALSTAR M097 [+]     
1 39072U 13005A   23245.38095022 -.00000071  00000+0  18093-3 0  9997
2 39072  52.0039 104.6888 0000408  70.1847 289.9064 12.62270533488241
GLOBALSTAR M093 [+]     
1 39073U 13005B   23245.27513890 -.00000083  00000+0  11539-3 0  9995
2 39073  51.9805  99.3591 0000255  46.1458 313.9429 12.62266371488184
GLOBALSTAR M094 [+]     
1 39074U 13005C   23245.51274925 -.00000101  00000+0  16213-4 0  9992
2 39074  51.9984  12.3639 0000531  95.0423 265.0504 12.62267032489821
GLOBALSTAR M096 [+]     
1 39075U 13005D   23245.52579348 -.00000105  00000+0 -78354-5 0  9991
2 39075  52.0075  60.3260 0000464  82.0894 278.0025 12.62268216488748
GLOBALSTAR M078 [+]     
1 39076U 13005E   23245.41995350 -.00000025  00000+0  44152-3 0  9992
2 39076  51.9865 146.0471 0000950 140.7156 219.3780 12.62271431487358
GLOBALSTAR M095 [+]     
1 39077U 13005F   23245.44687089 -.00000063  00000+0  22911-3 0  9994
2 39077  51.9792 143.4900 0000337 146.9002 213.1885 12.62268378487212
GLOBALSTAR M087 [+]     
1 52888U 22064A   23245.37733568 -.00000077  00000+0  97893-4 0  9997
2 52888  51.9752 135.4298 0009637 355.6735   4.4080 13.37551732 58874
